CCSDS_OMM_VERS = 2.0
CREATION_DATE  = 
ORIGINATOR     = 

OBJECT_NAME    = CZ-2C DEB
OBJECT_ID      = 2026-009D
CENTER_NAME    = EARTH
REF_FRAME      = TEME
TIME_SYSTEM    = UTC
MEAN_ELEMENT_THEORY = SGP/SGP4

EPOCH          = 2026-02-12T04:47:08.646432
MEAN_MOTION    = 15.14009215
ECCENTRICITY   = .01068214
INCLINATION    = 97.6729
RA_OF_ASC_NODE = 118.0714
ARG_OF_PERICENTER = 130.9013
MEAN_ANOMALY   = 230.1531

EPHEMERIS_TYPE = 0
CLASSIFICATION_TYPE = U
NORAD_CAT_ID   = 67587
ELEMENT_SET_NO = 999
REV_AT_EPOCH   = 423
BSTAR          = .19296285E-2
MEAN_MOTION_DOT = .40505E-3
MEAN_MOTION_DDOT = 0

CCSDS_OMM_VERS = 2.0
CREATION_DATE  = 
ORIGINATOR     = 

OBJECT_NAME    = NAVSTAR 85 (USA 581)
OBJECT_ID      = 2026-017A
CENTER_NAME    = EARTH
REF_FRAME      = TEME
TIME_SYSTEM    = UTC
MEAN_ELEMENT_THEORY = SGP/SGP4

EPOCH          = 2026-02-11T13:21:06.531840
MEAN_MOTION    = 2.00561439
ECCENTRICITY   = .00008486
INCLINATION    = 55.0041
RA_OF_ASC_NODE = 93.7970
ARG_OF_PERICENTER = 63.5422
MEAN_ANOMALY   = 296.5308

EPHEMERIS_TYPE = 0
CLASSIFICATION_TYPE = U
NORAD_CAT_ID   = 67588
ELEMENT_SET_NO = 999
REV_AT_EPOCH   = 42909
BSTAR          = 0
MEAN_MOTION_DOT = -.27E-6
MEAN_MOTION_DDOT = 0

CCSDS_OMM_VERS = 2.0
CREATION_DATE  = 
ORIGINATOR     = 

OBJECT_NAME    = STARLINK-36641
OBJECT_ID      = 2026-018A
CENTER_NAME    = EARTH
REF_FRAME      = TEME
TIME_SYSTEM    = UTC
MEAN_ELEMENT_THEORY = SGP/SGP4

EPOCH          = 2026-02-12T06:00:02.999808
MEAN_MOTION    = 15.81241972
ECCENTRICITY   = .00019154
INCLINATION    = 97.2842
RA_OF_ASC_NODE = 107.7486
ARG_OF_PERICENTER = 116.4044
MEAN_ANOMALY   = 96.7981

EPHEMERIS_TYPE = 0
CLASSIFICATION_TYPE = U
NORAD_CAT_ID   = 67589
ELEMENT_SET_NO = 999
REV_AT_EPOCH   = 325
BSTAR          = -.96627486E-2
MEAN_MOTION_DOT = -.1645901E-1
MEAN_MOTION_DDOT = 0

CCSDS_OMM_VERS = 2.0
CREATION_DATE  = 
ORIGINATOR     = 

OBJECT_NAME    = STARLINK-36376
OBJECT_ID      = 2026-018B
CENTER_NAME    = EARTH
REF_FRAME      = TEME
TIME_SYSTEM    = UTC
MEAN_ELEMENT_THEORY = SGP/SGP4

EPOCH          = 2026-02-12T06:00:02.999808
MEAN_MOTION    = 15.80837967
ECCENTRICITY   = .00014854
INCLINATION    = 97.2843
RA_OF_ASC_NODE = 107.7514
ARG_OF_PERICENTER = 107.8000
MEAN_ANOMALY   = 110.6528

EPHEMERIS_TYPE = 0
CLASSIFICATION_TYPE = U
NORAD_CAT_ID   = 67590
ELEMENT_SET_NO = 999
REV_AT_EPOCH   = 330
BSTAR          = -.31580877E-3
MEAN_MOTION_DOT = -.6028E-3
MEAN_MOTION_DDOT = 0

CCSDS_OMM_VERS = 2.0
CREATION_DATE  = 
ORIGINATOR     = 

OBJECT_NAME    = STARLINK-36391
OBJECT_ID      = 2026-018C
CENTER_NAME    = EARTH
REF_FRAME      = TEME
TIME_SYSTEM    = UTC
MEAN_ELEMENT_THEORY = SGP/SGP4

EPOCH          = 2026-02-12T06:00:02.999808
MEAN_MOTION    = 15.81010497
ECCENTRICITY   = .00015935
INCLINATION    = 97.2842
RA_OF_ASC_NODE = 107.7544
ARG_OF_PERICENTER = 74.7871
MEAN_ANOMALY   = 149.8666

EPHEMERIS_TYPE = 0
CLASSIFICATION_TYPE = U
NORAD_CAT_ID   = 67591
ELEMENT_SET_NO = 999
REV_AT_EPOCH   = 330
BSTAR          = -.16381642E-2
MEAN_MOTION_DOT = -.305932E-2
MEAN_MOTION_DDOT = 0

CCSDS_OMM_VERS = 2.0
CREATION_DATE  = 
ORIGINATOR     = 

OBJECT_NAME    = STARLINK-36603
OBJECT_ID      = 2026-018D
CENTER_NAME    = EARTH
REF_FRAME      = TEME
TIME_SYSTEM    = UTC
MEAN_ELEMENT_THEORY = SGP/SGP4

EPOCH          = 2026-02-12T06:00:02.999808
MEAN_MOTION    = 15.80857551
ECCENTRICITY   = .0001549
INCLINATION    = 97.2842
RA_OF_ASC_NODE = 107.7543
ARG_OF_PERICENTER = 86.1645
MEAN_ANOMALY   = 142.7448

EPHEMERIS_TYPE = 0
CLASSIFICATION_TYPE = U
NORAD_CAT_ID   = 67592
ELEMENT_SET_NO = 999
REV_AT_EPOCH   = 326
BSTAR          = -.57171302E-3
MEAN_MOTION_DOT = -.108512E-2
MEAN_MOTION_DDOT = 0

CCSDS_OMM_VERS = 2.0
CREATION_DATE  = 
ORIGINATOR     = 

OBJECT_NAME    = STARLINK-36634
OBJECT_ID      = 2026-018E
CENTER_NAME    = EARTH
REF_FRAME      = TEME
TIME_SYSTEM    = UTC
MEAN_ELEMENT_THEORY = SGP/SGP4

EPOCH          = 2026-02-12T06:00:02.999808
MEAN_MOTION    = 15.80826799
ECCENTRICITY   = .00015284
INCLINATION    = 97.2842
RA_OF_ASC_NODE = 107.7581
ARG_OF_PERICENTER = 79.7519
MEAN_ANOMALY   = 155.7087

EPHEMERIS_TYPE = 0
CLASSIFICATION_TYPE = U
NORAD_CAT_ID   = 67593
ELEMENT_SET_NO = 999
REV_AT_EPOCH   = 325
BSTAR          = -.24756983E-3
MEAN_MOTION_DOT = -.47331E-3
MEAN_MOTION_DDOT = 0

CCSDS_OMM_VERS = 2.0
CREATION_DATE  = 
ORIGINATOR     = 

OBJECT_NAME    = STARLINK-36638
OBJECT_ID      = 2026-018F
CENTER_NAME    = EARTH
REF_FRAME      = TEME
TIME_SYSTEM    = UTC
MEAN_ELEMENT_THEORY = SGP/SGP4

EPOCH          = 2026-02-12T06:00:02.999808
MEAN_MOTION    = 15.80833569
ECCENTRICITY   = .00012438
INCLINATION    = 97.2841
RA_OF_ASC_NODE = 107.7598
ARG_OF_PERICENTER = 66.6073
MEAN_ANOMALY   = 175.1540

EPHEMERIS_TYPE = 0
CLASSIFICATION_TYPE = U
NORAD_CAT_ID   = 67594
ELEMENT_SET_NO = 999
REV_AT_EPOCH   = 325
BSTAR          = -.28759418E-3
MEAN_MOTION_DOT = -.54928E-3
MEAN_MOTION_DDOT = 0

CCSDS_OMM_VERS = 2.0
CREATION_DATE  = 
ORIGINATOR     = 

OBJECT_NAME    = STARLINK-36628
OBJECT_ID      = 2026-018G
CENTER_NAME    = EARTH
REF_FRAME      = TEME
TIME_SYSTEM    = UTC
MEAN_ELEMENT_THEORY = SGP/SGP4

EPOCH          = 2026-02-12T06:00:02.999808
MEAN_MOTION    = 15.80848520
ECCENTRICITY   = .00011334
INCLINATION    = 97.2845
RA_OF_ASC_NODE = 107.7618
ARG_OF_PERICENTER = 103.1607
MEAN_ANOMALY   = 143.2833

EPHEMERIS_TYPE = 0
CLASSIFICATION_TYPE = U
NORAD_CAT_ID   = 67595
ELEMENT_SET_NO = 999
REV_AT_EPOCH   = 325
BSTAR          = -.36278518E-3
MEAN_MOTION_DOT = -.69186E-3
MEAN_MOTION_DDOT = 0

CCSDS_OMM_VERS = 2.0
CREATION_DATE  = 
ORIGINATOR     = 

OBJECT_NAME    = STARLINK-36629
OBJECT_ID      = 2026-018H
CENTER_NAME    = EARTH
REF_FRAME      = TEME
TIME_SYSTEM    = UTC
MEAN_ELEMENT_THEORY = SGP/SGP4

EPOCH          = 2026-02-12T06:00:02.999808
MEAN_MOTION    = 15.78763501
ECCENTRICITY   = .00017168
INCLINATION    = 97.2842
RA_OF_ASC_NODE = 107.7632
ARG_OF_PERICENTER = 73.0364
MEAN_ANOMALY   = 177.3621

EPHEMERIS_TYPE = 0
CLASSIFICATION_TYPE = U
NORAD_CAT_ID   = 67596
ELEMENT_SET_NO = 999
REV_AT_EPOCH   = 325
BSTAR          = -.12912971E-1
MEAN_MOTION_DOT = -.1959052E-1
MEAN_MOTION_DDOT = 0

CCSDS_OMM_VERS = 2.0
CREATION_DATE  = 
ORIGINATOR     = 

OBJECT_NAME    = STARLINK-36384
OBJECT_ID      = 2026-018J
CENTER_NAME    = EARTH
REF_FRAME      = TEME
TIME_SYSTEM    = UTC
MEAN_ELEMENT_THEORY = SGP/SGP4

EPOCH          = 2026-02-12T06:00:02.999808
MEAN_MOTION    = 15.80826548
ECCENTRICITY   = .00011629
INCLINATION    = 97.2843
RA_OF_ASC_NODE = 107.7660
ARG_OF_PERICENTER = 57.4444
MEAN_ANOMALY   = 201.0851

EPHEMERIS_TYPE = 0
CLASSIFICATION_TYPE = U
NORAD_CAT_ID   = 67597
ELEMENT_SET_NO = 999
REV_AT_EPOCH   = 331
BSTAR          = -.24546007E-3
MEAN_MOTION_DOT = -.46929E-3
MEAN_MOTION_DDOT = 0

CCSDS_OMM_VERS = 2.0
CREATION_DATE  = 
ORIGINATOR     = 

OBJECT_NAME    = STARLINK-36358
OBJECT_ID      = 2026-018K
CENTER_NAME    = EARTH
REF_FRAME      = TEME
TIME_SYSTEM    = UTC
MEAN_ELEMENT_THEORY = SGP/SGP4

EPOCH          = 2026-02-12T06:00:02.999808
MEAN_MOTION    = 15.80856900
ECCENTRICITY   = .00015075
INCLINATION    = 97.2844
RA_OF_ASC_NODE = 107.7681
ARG_OF_PERICENTER = 78.7555
MEAN_ANOMALY   = 184.0853

EPHEMERIS_TYPE = 0
CLASSIFICATION_TYPE = U
NORAD_CAT_ID   = 67598
ELEMENT_SET_NO = 999
REV_AT_EPOCH   = 330
BSTAR          = -.58252632E-3
MEAN_MOTION_DOT = -.110533E-2
MEAN_MOTION_DDOT = 0

