CZ-2C DEB               
1 67587U 26009D   26043.19940563  .00040505  00000+0  19296-2 0  9994
2 67587  97.6729 118.0714 0106821 130.9013 230.1531 15.14009215  4234
NAVSTAR 85 (USA 581)    
1 67588U 26017A   26042.55632560 -.00000027  00000+0  00000+0 0  9994
2 67588  55.0041  93.7970 0000848  63.5422 296.5308  2.00561439429095
STARLINK-36641          
1 67589U 26018A   26043.25003472 -.01645901  00000+0 -96627-2 0  9999
2 67589  97.2842 107.7486 0001915 116.4044  96.7981 15.81241972  3258
STARLINK-36376          
1 67590U 26018B   26043.25003472 -.00060280  00000+0 -31581-3 0  9990
2 67590  97.2843 107.7514 0001485 107.8000 110.6528 15.80837967  3304
STARLINK-36391          
1 67591U 26018C   26043.25003472 -.00305932  00000+0 -16382-2 0  9998
2 67591  97.2842 107.7544 0001593  74.7871 149.8666 15.81010497  3304
STARLINK-36603          
1 67592U 26018D   26043.25003472 -.00108512  00000+0 -57171-3 0  9996
2 67592  97.2842 107.7543 0001549  86.1645 142.7448 15.80857551  3265
STARLINK-36634          
1 67593U 26018E   26043.25003472 -.00047331  00000+0 -24757-3 0  9992
2 67593  97.2842 107.7581 0001528  79.7519 155.7087 15.80826799  3255
STARLINK-36638          
1 67594U 26018F   26043.25003472 -.00054928  00000+0 -28759-3 0  9999
2 67594  97.2841 107.7598 0001243  66.6073 175.1540 15.80833569  3250
STARLINK-36628          
1 67595U 26018G   26043.25003472 -.00069186  00000+0 -36279-3 0  9998
2 67595  97.2845 107.7618 0001133 103.1607 143.2833 15.80848520  3250
STARLINK-36629          
1 67596U 26018H   26043.25003472 -.01959052  00000+0 -12913-1 0  9997
2 67596  97.2842 107.7632 0001716  73.0364 177.3621 15.78763501  3251
STARLINK-36384          
1 67597U 26018J   26043.25003472 -.00046929  00000+0 -24546-3 0  9994
2 67597  97.2843 107.7660 0001162  57.4444 201.0851 15.80826548  3315
STARLINK-36358          
1 67598U 26018K   26043.25003472 -.00110533  00000+0 -58253-3 0  9990
2 67598  97.2844 107.7681 0001507  78.7555 184.0853 15.80856900  3308
